{
    "links": {
        "self": "http://www.neowsapp.com/rest/v1/neo/3267370?api_key=iIulBulltgU6a56xZRHN4H3l9WmuAYTsLGpBGhQ2"
    },
    "id": "3267370",
    "neo_reference_id": "3267370",
    "name": "(2005 CU38)",
    "designation": "2005 CU38",
    "nasa_jpl_url": "http://ssd.jpl.nasa.gov/sbdb.cgi?sstr=3267370",
    "absolute_magnitude_h": 23.9,
    "estimated_diameter": {
        "kilometers": {
            "estimated_diameter_min": 0.04411182,
            "estimated_diameter_max": 0.0986370281
        },
        "meters": {
            "estimated_diameter_min": 44.1118199997,
            "estimated_diameter_max": 98.6370281305
        },
        "miles": {
            "estimated_diameter_min": 0.0274098057,
            "estimated_diameter_max": 0.0612901888
        },
        "feet": {
            "estimated_diameter_min": 144.7238235278,
            "estimated_diameter_max": 323.6123073718
        }
    },
    "is_potentially_hazardous_asteroid": false,
    "close_approach_data": [
        {
            "close_approach_date": "2005-01-30",
            "close_approach_date_full": "2005-Jan-30 06:19",
            "epoch_date_close_approach": 1107065940000,
            "relative_velocity": {
                "kilometers_per_second": "14.6522727698",
                "kilometers_per_hour": "52748.1819712483",
                "miles_per_hour": "32775.6689587459"
            },
            "miss_distance": {
                "astronomical": "0.0377522972",
                "lunar": "14.6856436108",
                "kilometers": "5647663.248726964",
                "miles": "3509295.2145775432"
            },
            "orbiting_body": "Earth"
        },
        {
            "close_approach_date": "2155-01-23",
            "close_approach_date_full": "2155-Jan-23 16:47",
            "epoch_date_close_approach": 5840009220000,
            "relative_velocity": {
                "kilometers_per_second": "12.1135944076",
                "kilometers_per_hour": "43608.9398673877",
                "miles_per_hour": "27096.8993303777"
            },
            "miss_distance": {
                "astronomical": "0.1111289522",
                "lunar": "43.2291624058",
                "kilometers": "16624654.544451814",
                "miles": "10330081.3216864732"
            },
            "orbiting_body": "Earth"
        }
    ],
    "orbital_data": {
        "orbit_id": "8",
        "orbit_determination_date": "2017-04-06 09:11:27",
        "first_observation_date": "2005-02-09",
        "last_observation_date": "2005-02-19",
        "data_arc_in_days": 10,
        "observations_used": 20,
        "orbit_uncertainty": "9",
        "minimum_orbit_intersection": ".0336549",
        "jupiter_tisserand_invariant": "3.927",
        "epoch_osculation": "2453415.5",
        "eccentricity": ".5663780222526019",
        "semi_major_axis": "1.745070567727349",
        "inclination": "8.032499754016326",
        "ascending_node_longitude": "325.0662546500102",
        "orbital_period": "842.0112954981239",
        "perihelion_distance": ".7567009508867081",
        "perihelion_argument": "96.25248725500961",
        "aphelion_distance": "2.733440184567991",
        "perihelion_time": "2453355.471755682326",
        "mean_anomaly": "25.66493830890751",
        "mean_motion": ".4275477085934201",
        "equinox": "J2000",
        "orbit_class": {
            "orbit_class_type": "APO",
            "orbit_class_description": "Near-Earth asteroid orbits which cross the Earth’s orbit similar to that of 1862 Apollo",
            "orbit_class_range": "a (semi-major axis) > 1.0 AU; q (perihelion) < 1.017 AU"
        }
    },
    "is_sentry_object": false
}